satname,norad_id,inclination_deg,eccentricity,mean_motion_rev_per_day,perigee_km,apogee_km,l1,l2
STARLINK-1143,45179,53.0474,0.000484,15.57195752,392.4987760581944,399.0559251495788,1 45179U 20012B   26048.38488972  .00038790  00000+0  52785-3 0  9996,2 45179  53.0474  68.8131 0004840   2.4797 357.6237 15.57195752332753
STARLINK-1202,45183,53.1601,0.000144,15.30200351,474.2271388497111,476.2009039438726,1 45183U 20012F   26048.70219001  .00007993  00000+0  28170-3 0  9994,2 45183  53.1601 132.0916 0001440  83.7180 276.3985 15.30200351331891
STARLINK-1216,45185,53.1614,0.0001303,15.30212575,474.28453611076384,476.0705098754552,1 45185U 20012H   26048.62738626  .00001484  00000+0  62198-4 0  9994,2 45185  53.1614 132.4157 0001303  96.6229 263.4920 15.30212575331823
STARLINK-1225,45187,53.1628,0.0001321,15.30197627,474.3168260343991,476.12748352309154,1 45187U 20012K   26048.49366793  .00005494  00000+0  19750-3 0  9993,2 45187  53.1628 133.4775 0001321  80.9508 279.1642 15.30197627331840
STARLINK-1230,45189,53.1615,0.0001337,15.30202707,474.29069472614174,476.123278908216,1 45189U 20012M   26048.69909501  .00002426  00000+0  93999-4 0  9997,2 45189  53.1615 132.5847 0001337  85.0556 275.0597 15.30202707329100
STARLINK-1234,45190,53.0452,0.0005709,15.5737962,391.3772536706101,399.1111002984917,1 45190U 20012N   26048.33941684  .00135895  00000+0  17977-2 0  9995,2 45190  53.0452  64.3983 0005709 262.9234  97.1128 15.57379620332700
STARLINK-1269,45197,53.1615,0.0001358,15.30196627,474.2944540291419,476.1558271865315,1 45197U 20012V   26048.43466364 -.00000325  00000+0  11415-5 0  9994,2 45197  53.1615 133.6751 0001358  68.3829 291.7317 15.30196627331814
STARLINK-1154,45198,53.0504,0.0006165,15.42786336,433.6881810047107,442.09234261852544,1 45198U 20012W   26048.42915444  .00076491  00000+0  17124-2 0  9998,2 45198  53.0504 106.3962 0006165  10.4277 349.6855 15.42786336332162
STARLINK-1199,45201,53.0929,0.0001993,15.1645905,515.178449376469,517.9266726354863,1 45201U 20012Z   26048.91668981  .00062867  00000+0  31803-2 0  9990,2 45201  53.0929 115.2142 0001993  90.8211 112.2167 15.16459050  5833
STARLINK-1209,45206,53.0478,0.0007037,15.47232166,420.0399347105149,429.6144264982977,1 45206U 20012AE  26048.28668126  .00086118  00000+0  16536-2 0  9997,2 45206  53.0478  71.2128 0007037 232.0542 127.9829 15.47232166331756
STARLINK-1210,45207,53.0112,0.0005294,16.00888418,268.4366761045276,275.47779588159756,1 45207U 20012AF  26048.27378651  .00483087  11349-3  87826-3 0  9997,2 45207  53.0112   5.0283 0005294  93.0137 267.1498 16.00888418333621
STARLINK-1231,45212,53.0458,0.0003362,15.19320177,505.57887717130507,510.20904438933394,1 45212U 20012AL  26048.62706286  .00032563  00000+0  15308-2 0  9993,2 45212  53.0458 107.7939 0003362   2.9748 357.1266 15.19320177332173
STARLINK-1271,45217,53.0844,0.0001502,15.14561988,521.2722005191881,523.3450943916832,1 45217U 20012AR  26048.91668981  .00061883  00000+0  33040-2 0  9999,2 45217  53.0844 115.2813 0001502 114.0351 132.2234 15.14561988  5830
STARLINK-1191,45222,53.1563,0.0001195,15.31021839,471.9436215781425,473.5809865118099,1 45222U 20012AW  26048.55656838 -.00003958  00000+0 -11840-3 0  9999,2 45222  53.1563  92.3877 0001195  83.2354 276.8783 15.31021839332436
STARLINK-1212,45223,53.052,0.0004881,15.44533604,429.4244359428503,436.0732226894297,1 45223U 20012AX  26048.59074590  .00063463  00000+0  13435-2 0  9999,2 45223  53.0520  86.3724 0004881  32.6876 327.4431 15.44533604332520
STARLINK-1215,45225,53.1595,0.0001428,15.30205496,474.2200030709373,476.1773157352636,1 45225U 20012AZ  26048.40811859  .00000716  00000+0  36293-4 0  9999,2 45225  53.1595  92.5110 0001428  89.1050 271.0115 15.30205496332374
STARLINK-1221,45227,53.0679,0.0002276,15.41134567,441.20717875510854,444.31205089417745,1 45227U 20012BB  26048.29422998  .00020116  00000+0  48670-3 0  9997,2 45227  53.0679   6.2005 0002276 357.6096   2.4897 15.41134567333565
STARLINK-1222,45228,53.0558,0.0003074,15.48225307,419.827265068353,424.0079386375728,1 45228U 20012BC  26048.35934334  .00069918  00000+0  13021-2 0  9991,2 45228  53.0558  80.1845 0003074  31.8817 328.2376 15.48225307332474
STARLINK-1226,45229,53.1605,0.0001517,15.31031173,471.695182273671,473.7737366744759,1 45229U 20012BD  26048.37734334 -.00000689  00000+0 -10729-4 0  9998,2 45229  53.1605  93.0223 0001517  98.1661 261.9512 15.31031173332300
STARLINK-1227,45230,53.1609,0.0001412,15.3105302,471.7019542081098,473.6366219038573,1 45230U 20012BE  26048.40498613  .00003141  00000+0  11515-3 0  9998,2 45230  53.1609  93.2054 0001412 102.7512 257.3647 15.31053020332427
STARLINK-1246,45235,53.1596,0.0001269,15.30212609,474.30773587654403,476.0471070767153,1 45235U 20012BK  26048.70534174  .00008099  00000+0  28516-3 0  9995,2 45235  53.1596 132.0737 0001269  90.1811 269.9335 15.30212609331914
STARLINK-1270,45237,53.0501,0.0004129,15.43515499,432.9300288459499,438.55693134641297,1 45237U 20012BM  26048.33679616  .00077296  00000+0  16888-2 0  9990,2 45237  53.0501  84.5085 0004129 354.6766   5.4195 15.43515499332525
STARLINK-1279,45360,53.0437,0.0004472,15.53402474,403.76619558436505,409.8346436124539,1 45360U 20019A   26048.91668981  .00117276  00000+0  18013-2 0  9996,2 45360  53.0437 194.3504 0004472 144.1718 274.4787 15.53402474  5954
STARLINK-1301,45361,53.0437,0.0006441,15.60186684,382.7598626683339,391.4748633387544,1 45361U 20019B   26048.91668981  .00141565  00000+0  16826-2 0  9995,2 45361  53.0437 200.7863 0006441 146.5412 320.3749 15.60186684  5971
STARLINK-1262,45366,53.0541,0.0001684,15.06389145,546.078592849959,548.411061449342,1 45366U 20019G   26047.99181387  .00002153  00000+0  16345-3 0  9993,2 45366  53.0541 259.5338 0001684  88.7800 271.3382 15.06389145326615
STARLINK-1273,45367,53.0513,0.0001709,15.41997765,439.0485989099816,441.37911123224603,1 45367U 20019H   26048.71598392  .00061404  00000+0  14167-2 0  9996,2 45367  53.0513 249.6652 0001709 137.8805 222.2331 15.41997765326816
STARLINK-1276,45368,53.0541,0.0001328,15.06396675,546.3020609613195,548.1414362449486,1 45368U 20019J   26048.71425932 -.00003310  00000+0 -20341-3 0  9992,2 45368  53.0541 256.2894 0001328  92.3593 267.7548 15.06396675326724
STARLINK-1277,45369,53.0524,0.0001441,15.45302364,429.5086571208931,431.4709033589579,1 45369U 20019K   26048.91668981  .00120663  00000+0  24630-2 0  9991,2 45369  53.0524 247.0620 0001441  89.1522 222.4481 15.45302364  5850
STARLINK-1281,45370,53.0521,0.0001799,15.06400375,545.9645386187167,548.4562786163369,1 45370U 20019L   26047.97340567  .00006850  00000+0  47829-3 0  9992,2 45370  53.0521 259.6175 0001799 105.6028 254.5159 15.06400375326610
STARLINK-1300,45374,53.0544,0.0001415,15.06391547,546.2575248001313,548.2174057738075,1 45374U 20019Q   26048.59261869  .00000488  00000+0  51634-4 0  9993,2 45374  53.0544 256.8362 0001415  95.4214 264.6937 15.06391547326700
STARLINK-1302,45375,53.0514,0.0002628,15.46500284,425.1849657187049,428.761731717992,1 45375U 20019R   26048.91668981  .00133165  00000+0  26037-2 0  9992,2 45375  53.0514 246.4670 0002628 162.1418 316.0456 15.46500284  5908
STARLINK-1304,45376,53.0508,0.0004437,15.44587982,429.5670554796043,435.61089370945956,1 45376U 20019S   26047.83348263  .00074818  00000+0  15771-2 0  9993,2 45376  53.0508 249.0177 0004437 154.5335 205.5890 15.44587982326746
STARLINK-1305,45377,53.0452,0.0005881,15.48976068,415.7223612718208,423.7180008882069,1 45377U 20019T   26048.66877781  .00086422  00000+0  15620-2 0  9995,2 45377  53.0452 228.4666 0005881 112.6931 247.4699 15.48976068327115
STARLINK-1319,45379,53.0477,0.0005008,15.54972377,398.83731795104177,405.62853647013617,1 45379U 20019V   26048.80315910  .00091416  00000+0  13318-2 0  9995,2 45379  53.0477 226.5043 0005008 126.9030 233.2439 15.54972377327156
STARLINK-1266,45383,53.0513,0.0001352,15.42277602,438.4673347527896,440.3107938005696,1 45383U 20019Z   26048.65522899  .00052829  00000+0  12102-2 0  9994,2 45383  53.0513 228.2053 0001352 151.5656 208.5422 15.42277602327106
STARLINK-1267,45384,53.0534,0.0006205,15.46117333,423.87371937599073,432.3202557545592,1 45384U 20019AA  26048.66804134  .00068335  00000+0  13687-2 0  9999,2 45384  53.0534 222.7657 0006205 169.1311 190.9830 15.46117333327187
STARLINK-1272,45386,53.047,0.0005204,15.52241477,406.65054626739493,413.7158299191633,1 45386U 20019AC  26048.67012964  .00079966  00000+0  12891-2 0  9992,2 45386  53.0470 206.4714 0005204 132.4928 227.6522 15.52241477327412
STARLINK-1274,45387,53.0285,0.0007349,15.44572078,427.63048965277267,437.64096340622655,1 45387U 20019AD  26048.67766522  .00072021  00000+0  15190-2 0  9999,2 45387  53.0285 198.3825 0007349 162.8110 197.3145 15.44572078327522
STARLINK-1280,45388,53.0447,0.0005226,15.61342078,380.2456457399785,387.3132007855729,1 45388U 20019AE  26048.70924320  .00105777  00000+0  12099-2 0  9996,2 45388  53.0447 220.3570 0005226 127.1463 233.0028 15.61342078327211
STARLINK-1283,45389,53.0459,0.0010025,15.51904019,404.3609448090456,417.97349977474096,1 45389U 20019AF  26048.78457781  .00044894  00000+0  73806-3 0  9993,2 45389  53.0459 206.1032 0010025 161.6641 198.4730 15.51904019327430
STARLINK-1284,45390,53.0493,0.0001313,15.48045106,421.5523844336831,423.33821734589674,1 45390U 20019AG  26048.68796740  .00037690  00000+0  71316-3 0  9995,2 45390  53.0493 226.9485 0001313 164.0123 196.0925 15.48045106327129
STARLINK-1297,45395,53.0495,0.0001019,15.501584,415.5708318131974,416.9555305701242,1 45395U 20019AM  26048.79146558  .00077719  00000+0  13504-2 0  9998,2 45395  53.0495 226.4751 0001019 190.7642 169.3344 15.50158400326326
STARLINK-1307,45397,53.0547,0.0001055,15.48802146,419.5118520261167,420.9463072689223,1 45397U 20019AP  26048.68661314  .00021149  00000+0  39416-3 0  9997,2 45397  53.0547 226.6307 0001055  82.9846 277.1281 15.48802146326950
